start=new Date('2022-01-17T00:00:00.000Z').valueOf();
sats=[{"COUNTRY_CODE":"US","OBJECT_TYPE":"PAYLOAD","MEAN_ANOMALY":"21.8375","FILE":"3274746","SITE":"AFETR","EPHEMERIS_TYPE":"0","TLE_LINE1":"1 47422U 21006K   22016.91667824  .00984506  43064-3  27952-2 0  9991","INCLINATION":"97.4936","ARG_OF_PERICENTER":"228.1526","PERIAPSIS":"291.534","TIME_SYSTEM":"UTC","ELEMENT_SET_NO":"999","PERIOD":"90.371","SEMIMAJOR_AXIS":"6670.837","MEAN_MOTION":"15.93427311","BSTAR":"0.00279520000000","ECCENTRICITY":"0.00017510","OBJECT_ID":"2021-006K","CLASSIFICATION_TYPE":"U","OBJECT_NAME":"STARLINK-2208","GP_ID":"193989662","CENTER_NAME":"EARTH","MEAN_MOTION_DOT":"0.00984506","MEAN_MOTION_DDOT":"0.0004306400000","EPOCH":"2022-01-16T22:00:00.999936","NORAD_CAT_ID":"47422","REV_AT_EPOCH":"5470","RCS_SIZE":"LARGE","APOAPSIS":"293.870","TLE_LINE2":"2 47422  97.4936  85.3558 0001751 228.1526  21.8375 15.93427311 54701","DECAY_DATE":null,"MEAN_ELEMENT_THEORY":"SGP4","RA_OF_ASC_NODE":"85.3558","REF_FRAME":"TEME","LAUNCH_DATE":"2021-01-24"},{"ELEMENT_SET_NO":"999","TIME_SYSTEM":"UTC","PERIAPSIS":"546.018","ARG_OF_PERICENTER":"65.8497","INCLINATION":"53.0544","TLE_LINE1":"1 47548U 21009A   22016.84016541  .00002686  00000-0  19905-3 0  9999","OBJECT_TYPE":"PAYLOAD","MEAN_ANOMALY":"294.2665","COUNTRY_CODE":"US","FILE":"3274938","SITE":"AFETR","EPHEMERIS_TYPE":"0","RA_OF_ASC_NODE":"323.0781","MEAN_ELEMENT_THEORY":"SGP4","LAUNCH_DATE":"2021-02-04","REF_FRAME":"TEME","RCS_SIZE":"LARGE","DECAY_DATE":null,"APOAPSIS":"548.318","TLE_LINE2":"2 47548  53.0544 323.0781 0001661  65.8497 294.2665 15.06414863 53514","EPOCH":"2022-01-16T20:09:50.291424","MEAN_MOTION_DDOT":"0.0000000000000","MEAN_MOTION_DOT":"0.00002686","REV_AT_EPOCH":"5351","NORAD_CAT_ID":"47548","CLASSIFICATION_TYPE":"U","OBJECT_ID":"2021-009A","BSTAR":"0.00019905000000","ECCENTRICITY":"0.00016610","SEMIMAJOR_AXIS":"6925.303","PERIOD":"95.591","MEAN_MOTION":"15.06414863","CENTER_NAME":"EARTH","GP_ID":"193993520","OBJECT_NAME":"STARLINK-1782"},{"MEAN_MOTION_DOT":"0.00006004","MEAN_MOTION_DDOT":"0.0000000000000","EPOCH":"2022-01-16T07:20:13.408800","NORAD_CAT_ID":"47549","REV_AT_EPOCH":"5283","ECCENTRICITY":"0.00017320","BSTAR":"0.00042141000000","OBJECT_ID":"2021-009B","PERIOD":"95.591","SEMIMAJOR_AXIS":"6925.290","MEAN_MOTION":"15.06419064","CLASSIFICATION_TYPE":"U","GP_ID":"193984544","OBJECT_NAME":"STARLINK-1806","CENTER_NAME":"EARTH","RA_OF_ASC_NODE":"325.4661","MEAN_ELEMENT_THEORY":"SGP4","REF_FRAME":"TEME","LAUNCH_DATE":"2021-02-04","RCS_SIZE":"LARGE","APOAPSIS":"548.355","TLE_LINE2":"2 47549  53.0557 325.4661 0001732  70.6967 289.4209 15.06419064 52839","DECAY_DATE":null,"TLE_LINE1":"1 47549U 21009B   22016.30571075  .00006004  00000-0  42141-3 0  9995","INCLINATION":"53.0557","MEAN_ANOMALY":"289.4209","OBJECT_TYPE":"PAYLOAD","COUNTRY_CODE":"US","SITE":"AFETR","FILE":"3274671","EPHEMERIS_TYPE":"0","PERIAPSIS":"545.956","TIME_SYSTEM":"UTC","ELEMENT_SET_NO":"999","ARG_OF_PERICENTER":"70.6967"},{"ARG_OF_PERICENTER":"74.8591","ELEMENT_SET_NO":"999","PERIAPSIS":"545.993","TIME_SYSTEM":"UTC","FILE":"3274938","SITE":"AFETR","EPHEMERIS_TYPE":"0","COUNTRY_CODE":"US","MEAN_ANOMALY":"285.2590","OBJECT_TYPE":"PAYLOAD","INCLINATION":"53.0559","TLE_LINE1":"1 47550U 21009C   22016.91480977 -.00000471  00000-0 -12681-4 0  9995","DECAY_DATE":null,"TLE_LINE2":"2 47550  53.0559 312.7399 0001733  74.8591 285.2590 15.06406645 53671","APOAPSIS":"548.393","RCS_SIZE":"LARGE","LAUNCH_DATE":"2021-02-04","REF_FRAME":"TEME","MEAN_ELEMENT_THEORY":"SGP4","RA_OF_ASC_NODE":"312.7399","CENTER_NAME":"EARTH","OBJECT_NAME":"STARLINK-1909","GP_ID":"193993375","CLASSIFICATION_TYPE":"U","SEMIMAJOR_AXIS":"6925.328","PERIOD":"95.592","MEAN_MOTION":"15.06406645","ECCENTRICITY":"0.00017330","BSTAR":"-0.00001268100000","OBJECT_ID":"2021-009C","NORAD_CAT_ID":"47550","REV_AT_EPOCH":"5367","EPOCH":"2022-01-16T21:57:19.564128","MEAN_MOTION_DOT":"-0.00000471","MEAN_MOTION_DDOT":"0.0000000000000"},{"COUNTRY_CODE":"US","MEAN_ANOMALY":"288.7760","OBJECT_TYPE":"PAYLOAD","SITE":"AFETR","FILE":"3274671","EPHEMERIS_TYPE":"0","INCLINATION":"53.0560","TLE_LINE1":"1 47551U 21009D   22016.37850484  .00003922  00000-0  28188-3 0  9990","ARG_OF_PERICENTER":"71.3425","ELEMENT_SET_NO":"999","TIME_SYSTEM":"UTC","PERIAPSIS":"545.903","CLASSIFICATION_TYPE":"U","SEMIMAJOR_AXIS":"6925.287","PERIOD":"95.591","MEAN_MOTION":"15.06420024","ECCENTRICITY":"0.00018040","BSTAR":"0.00028188000000","OBJECT_ID":"2021-009D","CENTER_NAME":"EARTH","OBJECT_NAME":"STARLINK-1938","GP_ID":"193985544","EPOCH":"2022-01-16T09:05:02.818176","MEAN_MOTION_DDOT":"0.0000000000000","MEAN_MOTION_DOT":"0.00003922","REV_AT_EPOCH":"5270","NORAD_CAT_ID":"47551","RCS_SIZE":"LARGE","DECAY_DATE":null,"APOAPSIS":"548.402","TLE_LINE2":"2 47551  53.0560 335.1342 0001804  71.3425 288.7760 15.06420024 52705","MEAN_ELEMENT_THEORY":"SGP4","RA_OF_ASC_NODE":"335.1342","LAUNCH_DATE":"2021-02-04","REF_FRAME":"TEME"},{"INCLINATION":"53.0552","TLE_LINE1":"1 47552U 21009E   22016.11772909  .00002280  00000-0  17184-3 0  9998","FILE":"3274671","SITE":"AFETR","EPHEMERIS_TYPE":"0","COUNTRY_CODE":"US","OBJECT_TYPE":"PAYLOAD","MEAN_ANOMALY":"290.7787","ELEMENT_SET_NO":"999","PERIAPSIS":"545.997","TIME_SYSTEM":"UTC","ARG_OF_PERICENTER":"69.3384","REV_AT_EPOCH":"5280","NORAD_CAT_ID":"47552","EPOCH":"2022-01-16T02:49:31.793376","MEAN_MOTION_DOT":"0.00002280","MEAN_MOTION_DDOT":"0.0000000000000","CENTER_NAME":"EARTH","OBJECT_NAME":"STARLINK-1940","GP_ID":"193984794","CLASSIFICATION_TYPE":"U","SEMIMAJOR_AXIS":"6925.307","PERIOD":"95.591","MEAN_MOTION":"15.06413570","ECCENTRICITY":"0.00016970","BSTAR":"0.00017184000000","OBJECT_ID":"2021-009E","LAUNCH_DATE":"2021-02-04","REF_FRAME":"TEME","MEAN_ELEMENT_THEORY":"SGP4","RA_OF_ASC_NODE":"326.3120","DECAY_DATE":null,"TLE_LINE2":"2 47552  53.0552 326.3120 0001697  69.3384 290.7787 15.06413570 52805","APOAPSIS":"548.347","RCS_SIZE":"LARGE"},{"ARG_OF_PERICENTER":"42.4702","ELEMENT_SET_NO":"999","PERIAPSIS":"439.628","TIME_SYSTEM":"UTC","COUNTRY_CODE":"US","MEAN_ANOMALY":"317.6441","OBJECT_TYPE":"PAYLOAD","FILE":"3274940","EPHEMERIS_TYPE":"0","SITE":"AFETR","INCLINATION":"53.0611","TLE_LINE1":"1 47553U 21009F   22016.82355312  .00073773  00000-0  17097-2 0  9999","RCS_SIZE":"LARGE","DECAY_DATE":null,"TLE_LINE2":"2 47553  53.0611 314.6167 0001794  42.4702 317.6441 15.41782222 53637","APOAPSIS":"442.075","MEAN_ELEMENT_THEORY":"SGP4","RA_OF_ASC_NODE":"314.6167","LAUNCH_DATE":"2021-02-04","REF_FRAME":"TEME","CLASSIFICATION_TYPE":"U","SEMIMAJOR_AXIS":"6818.986","PERIOD":"93.398","MEAN_MOTION":"15.41782222","ECCENTRICITY":"0.00017940","BSTAR":"0.00170970000000","OBJECT_ID":"2021-009F","CENTER_NAME":"EARTH","OBJECT_NAME":"STARLINK-1951","GP_ID":"193993552","EPOCH":"2022-01-16T19:45:54.989568","MEAN_MOTION_DDOT":"0.0000000000000","MEAN_MOTION_DOT":"0.00073773","NORAD_CAT_ID":"47553","REV_AT_EPOCH":"5363"},{"MEAN_ANOMALY":"154.2425","OBJECT_TYPE":"PAYLOAD","COUNTRY_CODE":"US","FILE":"3274671","SITE":"AFETR","EPHEMERIS_TYPE":"0","INCLINATION":"53.0565","TLE_LINE1":"1 47554U 21009G   22016.32229543  .00003690  00000-0  26638-3 0  9994","ARG_OF_PERICENTER":"205.8532","ELEMENT_SET_NO":"999","TIME_SYSTEM":"UTC","PERIAPSIS":"546.728","CLASSIFICATION_TYPE":"U","BSTAR":"0.00026638000000","ECCENTRICITY":"0.00006340","OBJECT_ID":"2021-009G","MEAN_MOTION":"15.06415215","PERIOD":"95.591","SEMIMAJOR_AXIS":"6925.302","CENTER_NAME":"EARTH","GP_ID":"193985296","OBJECT_NAME":"STARLINK-1953","EPOCH":"2022-01-16T07:44:06.325152","MEAN_MOTION_DDOT":"0.0000000000000","MEAN_MOTION_DOT":"0.00003690","REV_AT_EPOCH":"5255","NORAD_CAT_ID":"47554","RCS_SIZE":"LARGE","DECAY_DATE":null,"TLE_LINE2":"2 47554  53.0565 345.3910 0000634 205.8532 154.2425 15.06415215 52554","APOAPSIS":"547.606","RA_OF_ASC_NODE":"345.3910","MEAN_ELEMENT_THEORY":"SGP4","LAUNCH_DATE":"2021-02-04","REF_FRAME":"TEME"},{"ELEMENT_SET_NO":"999","PERIAPSIS":"546.109","TIME_SYSTEM":"UTC","ARG_OF_PERICENTER":"78.3097","INCLINATION":"53.0551","TLE_LINE1":"1 47555U 21009H   22016.16471816  .00002866  00000-0  21117-3 0  9990","FILE":"3274671","SITE":"AFETR","EPHEMERIS_TYPE":"0","COUNTRY_CODE":"US","OBJECT_TYPE":"PAYLOAD","MEAN_ANOMALY":"281.8063","LAUNCH_DATE":"2021-02-04","REF_FRAME":"TEME","MEAN_ELEMENT_THEORY":"SGP4","RA_OF_ASC_NODE":"336.0987","DECAY_DATE":null,"TLE_LINE2":"2 47555  53.0551 336.0987 0001529  78.3097 281.8063 15.06414848 52673","APOAPSIS":"548.227","RCS_SIZE":"LARGE","NORAD_CAT_ID":"47555","REV_AT_EPOCH":"5267","EPOCH":"2022-01-16T03:57:11.649024","MEAN_MOTION_DOT":"0.00002866","MEAN_MOTION_DDOT":"0.0000000000000","CENTER_NAME":"EARTH","OBJECT_NAME":"STARLINK-1954","GP_ID":"193986044","CLASSIFICATION_TYPE":"U","PERIOD":"95.591","SEMIMAJOR_AXIS":"6925.303","MEAN_MOTION":"15.06414848","BSTAR":"0.00021117000000","ECCENTRICITY":"0.00015290","OBJECT_ID":"2021-009H"},{"TLE_LINE1":"1 47556U 21009J   22016.92955316  .00001939  00000-0  14902-3 0  9991","INCLINATION":"53.0531","FILE":"3274940","SITE":"AFETR","EPHEMERIS_TYPE":"0","COUNTRY_CODE":"US","OBJECT_TYPE":"PAYLOAD","MEAN_ANOMALY":"286.0331","PERIAPSIS":"545.784","TIME_SYSTEM":"UTC","ELEMENT_SET_NO":"999","ARG_OF_PERICENTER":"74.0879","NORAD_CAT_ID":"47556","REV_AT_EPOCH":"5310","MEAN_MOTION_DOT":"0.00001939","MEAN_MOTION_DDOT":"0.0000000000000","EPOCH":"2022-01-16T22:18:33.393024","OBJECT_NAME":"STARLINK-1955","GP_ID":"193993399","CENTER_NAME":"EARTH","SEMIMAJOR_AXIS":"6925.308","PERIOD":"95.591","MEAN_MOTION":"15.06413101","OBJECT_ID":"2021-009J","BSTAR":"0.00014902000000","ECCENTRICITY":"0.00020060","CLASSIFICATION_TYPE":"U","REF_FRAME":"TEME","LAUNCH_DATE":"2021-02-04","MEAN_ELEMENT_THEORY":"SGP4","RA_OF_ASC_NODE":"352.6540","APOAPSIS":"548.563","TLE_LINE2":"2 47556  53.0531 352.6540 0002006  74.0879 286.0331 15.06413101 53108","DECAY_DATE":null,"RCS_SIZE":"LARGE"}];
